{
  "norad_id": 58845,
  "name": "STARLINK-31264",
  "history": [
    {
      "epoch": "2026-03-28T17:46:25.102848Z",
      "apogee_km": 476.0132446875032,
      "perigee_km": 474.41792127323697,
      "latitude_deg": -2.776988973989475e-06,
      "longitude_deg": 112.64772942245446,
      "height_km": 476.09261522694493,
      "semi_major_axis_km": 6853.352582980369,
      "eccentricity": 0.00011639,
      "inclination_deg": 53.1595,
      "raan_deg": 205.409,
      "arg_perigee_deg": 88.4817,
      "mean_anomaly_deg": 271.6317,
      "mean_motion_rev_day": 15.30199828
    }
  ]
}