{"fetched_at":"2026-03-30T06:02:59Z","count":15439,"tles":[{"name":"STARLINK-31264","line1":"1 58845U 24017V   26087.74056832  .00003636  00000+0  13483-3 0  9991","line2":"2 58845  53.1595 205.4090 0001163  88.4817 271.6317 15.30199828121699","category":"Starlink"}]}